CCSDS_OMM_VERS = 2.0
CREATION_DATE  = 
ORIGINATOR     = 

OBJECT_NAME    = KZ-11 R/B
OBJECT_ID      = 2025-296C
CENTER_NAME    = EARTH
REF_FRAME      = TEME
TIME_SYSTEM    = UTC
MEAN_ELEMENT_THEORY = SGP/SGP4

EPOCH          = 2025-12-16T07:55:50.664864
MEAN_MOTION    = 14.63843283
ECCENTRICITY   = .07740946
INCLINATION    = 41.3415
RA_OF_ASC_NODE = 82.6682
ARG_OF_PERICENTER = 340.0940
MEAN_ANOMALY   = 17.1142

EPHEMERIS_TYPE = 0
CLASSIFICATION_TYPE = U
NORAD_CAT_ID   = 67071
ELEMENT_SET_NO = 999
REV_AT_EPOCH   = 48
BSTAR          = .46086155E-3
MEAN_MOTION_DOT = .4356756E-1
MEAN_MOTION_DDOT = .5428565E-5

CCSDS_OMM_VERS = 2.0
CREATION_DATE  = 
ORIGINATOR     = 

OBJECT_NAME    = ELECTRON R/B
OBJECT_ID      = 2025-297A
CENTER_NAME    = EARTH
REF_FRAME      = TEME
TIME_SYSTEM    = UTC
MEAN_ELEMENT_THEORY = SGP/SGP4

EPOCH          = 2025-12-16T07:45:25.234272
MEAN_MOTION    = 15.76326908
ECCENTRICITY   = .02423698
INCLINATION    = 97.4798
RA_OF_ASC_NODE = 137.9922
ARG_OF_PERICENTER = 219.3010
MEAN_ANOMALY   = 139.0448

EPHEMERIS_TYPE = 0
CLASSIFICATION_TYPE = U
NORAD_CAT_ID   = 67072
ELEMENT_SET_NO = 999
REV_AT_EPOCH   = 35
BSTAR          = .13827892E-2
MEAN_MOTION_DOT = .1860226E-1
MEAN_MOTION_DDOT = .2237747E-5

CCSDS_OMM_VERS = 2.0
CREATION_DATE  = 
ORIGINATOR     = 

OBJECT_NAME    = RAISE-4
OBJECT_ID      = 2025-297B
CENTER_NAME    = EARTH
REF_FRAME      = TEME
TIME_SYSTEM    = UTC
MEAN_ELEMENT_THEORY = SGP/SGP4

EPOCH          = 2025-12-16T08:24:57.309984
MEAN_MOTION    = 15.07155195
ECCENTRICITY   = .00117068
INCLINATION    = 97.4850
RA_OF_ASC_NODE = 137.8028
ARG_OF_PERICENTER = 307.7216
MEAN_ANOMALY   = 52.2950

EPHEMERIS_TYPE = 0
CLASSIFICATION_TYPE = U
NORAD_CAT_ID   = 67073
ELEMENT_SET_NO = 999
REV_AT_EPOCH   = 33
BSTAR          = .25234851E-3
MEAN_MOTION_DOT = .3738E-4
MEAN_MOTION_DDOT = 0

CCSDS_OMM_VERS = 2.0
CREATION_DATE  = 
ORIGINATOR     = 

OBJECT_NAME    = ELECTRON KICK STAGE R/B
OBJECT_ID      = 2025-297C
CENTER_NAME    = EARTH
REF_FRAME      = TEME
TIME_SYSTEM    = UTC
MEAN_ELEMENT_THEORY = SGP/SGP4

EPOCH          = 2025-12-16T08:22:26.259456
MEAN_MOTION    = 15.54655462
ECCENTRICITY   = .02064213
INCLINATION    = 97.4820
RA_OF_ASC_NODE = 137.9707
ARG_OF_PERICENTER = 256.3840
MEAN_ANOMALY   = 101.4350

EPHEMERIS_TYPE = 0
CLASSIFICATION_TYPE = U
NORAD_CAT_ID   = 67074
ELEMENT_SET_NO = 999
REV_AT_EPOCH   = 34
BSTAR          = .13694089E-2
MEAN_MOTION_DOT = .240635E-2
MEAN_MOTION_DDOT = .17053077E-4

