KZ-11 R/B               
1 67071U 25296C   25350.33044751  .04356756  54286-5  46086-3 0  9990
2 67071  41.3415  82.6682 0774094 340.0940  17.1142 14.63843283   484
ELECTRON R/B            
1 67072U 25297A   25350.32320873  .01860226  22377-5  13828-2 0  9995
2 67072  97.4798 137.9922 0242369 219.3010 139.0448 15.76326908   357
RAISE-4                 
1 67073U 25297B   25350.35066331  .00003738  00000+0  25235-3 0  9990
2 67073  97.4850 137.8028 0011706 307.7216  52.2950 15.07155195   336
ELECTRON KICK STAGE R/B 
1 67074U 25297C   25350.34891504  .00240635  17053-4  13694-2 0  9993
2 67074  97.4820 137.9707 0206421 256.3840 101.4350 15.54655462   347
